ORBCOMM FM20            
1 25416U 98046D   25328.95043510  .00001022  00000+0  38430-3 0  9997
2 25416  44.9921 139.7342 0000835  84.0782 276.0161 14.37603159427390
ORBCOMM FM16            
1 25417U 98046E   25328.95755862  .00001380  00000+0  48415-3 0  9999
2 25417  44.9919 129.0850 0003846  41.4019 318.7120 14.39452364427413
ORBCOMM FM15            
1 25418U 98046F   25328.83538800  .00001355  00000+0  48007-3 0  9997
2 25418  44.9949 135.3002 0003664  42.1137 317.9993 14.39077998427384
ORBCOMM FM14            
1 25419U 98046G   25328.94954390  .00001450  00000+0  50612-3 0  9997
2 25419  44.9940 132.5096 0002317  43.1742 316.9288 14.39489587427371
ORBCOMM FM13            
1 25420U 98046H   25328.86080574  .00001173  00000+0  42962-3 0  9995
2 25420  44.9956 142.5271 0004493  13.4494 346.6473 14.38128697426362
ORBCOMM FM21            
1 25475U 98053A   25329.04550683  .00000933  00000+0  35424-3 0  9995
2 25475  45.0079 227.5269 0002611 331.3594  28.7110 14.37742299420396
ORBCOMM FM22            
1 25476U 98053B   25329.03010251  .00001303  00000+0  46509-3 0  9995
2 25476  45.0069 221.0955 0004118 326.0955  33.9630 14.38900503420438
ORBCOMM FM23            
1 25477U 98053C   25329.09302808  .00001165  00000+0  42833-3 0  9996
2 25477  45.0078 229.1740 0003514 323.2704  36.7903 14.37976335420552
